NORAD_CAT_ID,OBJECT_NAME,OBJECT_TYPE,EPOCH,MEAN_MOTION,ECCENTRICITY,INCLINATION,RA_OF_ASC_NODE,ARG_OF_PERICENTER,MEAN_ANOMALY,BSTAR,MEAN_MOTION_DOT,MEAN_MOTION_DDOT,TLE_LINE0,TLE_LINE1,TLE_LINE2,SEMIMAJOR_AXIS,PERIOD,APOGEE,PERIGEE,DECAYED
55674.0,STARLINK-5462,PAYLOAD,2024-01-17 04:00:00,14.98337705,0.0002944,70.0006,337.3364,266.1106,93.9717,7.4496e-05,7.96e-06,0.0,0 STARLINK-5462,1 55674U 23021AY  24017.16667440  .00000796  00000-0  74496-4 0  9999,2 55674  70.0006 337.3364 0002944 266.1106  93.9717 14.98337705 51775,6950.169,96.107,574.08,569.988,0.0
55674.0,STARLINK-5462,PAYLOAD,2024-01-17 07:12:16,14.98341459,0.0002758,70.0012,337.0003,260.9942,99.0905,0.00011409,1.269e-05,0.0,0 STARLINK-5462,1 55674U 23021AY  24017.30019087  .00001269  00000-0  11409-3 0  9993,2 55674  70.0012 337.0003 0002758 260.9942  99.0905 14.98341459 52095,6950.157,96.106,573.939,570.106,0.0
55674.0,STARLINK-5462,PAYLOAD,2024-01-17 21:37:30,14.98316787,0.0002073,70.0042,335.4885,226.1331,133.9657,0.00011235,1.247e-05,0.0,0 STARLINK-5462,1 55674U 23021AY  24017.90104829  .00001247  00000-0  11235-3 0  9991,2 55674  70.0042 335.4885 0002073 226.1331 133.9657 14.98316787 52182,6950.234,96.108,573.54,570.658,0.0
55674.0,STARLINK-5462,PAYLOAD,2024-01-18 04:02:05,14.98294977,0.0002817,70.0006,334.8121,264.5906,95.4932,-0.0002602,-3.193e-05,0.0,0 STARLINK-5462,1 55674U 23021AY  24018.16811512 -.00003193  00000-0 -26020-3 0  9996,2 55674  70.0006 334.8121 0002817 264.5906  95.4932 14.98294977 51923,6950.301,96.109,574.124,570.208,0.0
55674.0,STARLINK-5462,PAYLOAD,2024-01-18 07:14:21,14.98296215,0.0002791,70.0007,334.4753,263.4817,96.6024,-0.00023774,-2.926e-05,0.0,0 STARLINK-5462,1 55674U 23021AY  24018.30163651 -.00002926  00000-0 -23774-3 0  9992,2 55674  70.0007 334.4753 0002791 263.4817  96.6024 14.98296215 52249,6950.297,96.109,574.102,570.223,0.0
55674.0,STARLINK-5462,PAYLOAD,2024-01-18 21:39:31,14.98332231,0.0002334,70.0015,332.9602,263.7589,96.3304,7.2856e-05,7.77e-06,0.0,0 STARLINK-5462,1 55674U 23021AY  24018.90245177  .00000777  00000-0  72856-4 0  9998,2 55674  70.0015 332.9602 0002334 263.7589  96.3304 14.98332231 52333,6950.186,96.107,573.673,570.429,0.0
55674.0,STARLINK-5462,PAYLOAD,2024-01-19 04:04:03,14.98336709,0.0002172,70.0017,332.2864,260.1161,99.9753,0.00013797,1.554e-05,0.0,0 STARLINK-5462,1 55674U 23021AY  24019.16948764  .00001554  00000-0  13797-3 0  9991,2 55674  70.0017 332.2864 0002172 260.1161  99.9753 14.98336709 52077,6950.172,96.107,573.547,570.528,0.0
55674.0,STARLINK-5462,PAYLOAD,2024-01-19 07:16:19,14.98341622,0.0001956,70.0024,331.9486,260.357,99.7368,0.00019489,2.234e-05,0.0,0 STARLINK-5462,1 55674U 23021AY  24019.30300417  .00002234  00000-0  19489-3 0  9994,2 55674  70.0024 331.9486 0001956 260.3570  99.7368 14.98341622 52391,6950.157,96.106,573.381,570.663,0.0
55674.0,STARLINK-5462,PAYLOAD,2024-01-19 23:17:39,14.98328833,0.0002404,70.001,330.2663,264.5672,95.5213,0.00059286,6.988e-05,0.0,0 STARLINK-5462,1 55674U 23021AY  24019.97060040  .00006988  00000-0  59286-3 0  9991,2 55674  70.0010 330.2663 0002404 264.5672  95.5213 14.98328833 52496,6950.196,96.107,573.732,570.391,0.0
55674.0,STARLINK-5462,PAYLOAD,2024-01-20 04:06:04,14.98323509,0.0002674,70.0016,329.7604,281.9553,78.1306,0.0007502,8.868e-05,0.0,0 STARLINK-5462,1 55674U 23021AY  24020.17088346  .00008868  00000-0  75020-3 0  9997,2 55674  70.0016 329.7604 0002674 281.9553  78.1306 14.98323509 52226,6950.213,96.107,573.936,570.219,0.0
55674.0,STARLINK-5462,PAYLOAD,2024-01-20 05:42:12,14.98331246,0.0002121,70.0019,329.5922,270.5644,89.5272,0.00065703,7.755e-05,0.0,0 STARLINK-5462,1 55674U 23021AY  24020.23764167  .00007755  00000-0  65703-3 0  9997,2 55674  70.0019 329.5922 0002121 270.5644  89.5272 14.98331246 52531,6950.189,96.107,573.528,570.58,0.0
55674.0,STARLINK-5462,PAYLOAD,2024-01-20 21:43:32,14.98344917,0.00027,70.0004,327.9093,270.2943,89.7907,-3.9203e-05,-5.61e-06,0.0,0 STARLINK-5462,1 55674U 23021AY  24020.90524205 -.00000561  00000-0 -39203-4 0  9995,2 55674  70.0004 327.9093 0002700 270.2943  89.7907 14.98344917 52635,6950.147,96.106,573.888,570.135,0.0
55674.0,STARLINK-5462,PAYLOAD,2024-01-21 04:08:05,14.98343834,0.0002746,70.0004,327.236,270.2877,89.7967,-5.0064e-05,-6.9e-06,0.0,0 STARLINK-5462,1 55674U 23021AY  24021.17228016 -.00000690  00000-0 -50064-4 0  9997,2 55674  70.0004 327.2360 0002746 270.2877  89.7967 14.98343834 52375,6950.15,96.106,573.924,570.107,0.0
55674.0,STARLINK-5462,PAYLOAD,2024-01-21 05:44:12,14.9834503,0.0002654,70.0007,327.0678,266.4224,93.6632,-1.2328e-05,-2.4e-06,0.0,0 STARLINK-5462,1 55674U 23021AY  24021.23903841 -.00000240  00000-0 -12328-4 0  9992,2 55674  70.0007 327.0678 0002654 266.4224  93.6632 14.98345030 52686,6950.146,96.106,573.856,570.167,0.0
55674.0,STARLINK-5462,PAYLOAD,2024-01-21 21:45:33,14.98341022,0.000279,70.0003,325.385,267.206,92.878,-0.00011194,-1.429e-05,0.0,0 STARLINK-5462,1 55674U 23021AY  24021.90663727 -.00001429  00000-0 -11194-3 0  9991,2 55674  70.0003 325.3850 0002790 267.2060  92.8780 14.98341022 52786,6950.159,96.106,573.963,570.085,0.0
55674.0,STARLINK-5462,PAYLOAD,2024-01-22 04:10:05,14.98336898,0.0002701,70.0005,324.711,265.2485,94.8365,-1.5939e-05,-2.83e-06,0.0,0 STARLINK-5462,1 55674U 23021AY  24022.17367602 -.00000283  00000-0 -15939-4 0  9993,2 55674  70.0005 324.7110 0002701 265.2485  94.8365 14.98336898 52529,6950.172,96.107,573.914,570.159,0.0
55674.0,STARLINK-5462,PAYLOAD,2024-01-22 05:46:13,14.98341502,0.0002584,70.0007,324.5434,262.4069,97.6797,-4.0736e-05,-5.79e-06,0.0,0 STARLINK-5462,1 55674U 23021AY  24022.24043366 -.00000579  00000-0 -40736-4 0  9990,2 55674  70.0007 324.5434 0002584 262.4069  97.6797 14.98341502 52836,6950.157,96.106,573.818,570.226,0.0
55674.0,STARLINK-5462,PAYLOAD,2024-01-22 21:47:34,14.98329267,0.0002642,70.0008,322.8598,266.4472,93.6385,6.6141e-05,6.96e-06,0.0,0 STARLINK-5462,1 55674U 23021AY  24022.90803743  .00000696  00000-0  66141-4 0  9992,2 55674  70.0008 322.8598 0002642 266.4472  93.6385 14.98329267 52930,6950.195,96.107,573.896,570.224,0.0
55674.0,STARLINK-5462,PAYLOAD,2024-01-23 05:48:14,14.98337867,0.000262,70.0012,322.0171,267.8254,92.2605,0.00011232,1.248e-05,0.0,0 STARLINK-5462,1 55674U 23021AY  24023.24183123  .00001248  00000-0  11232-3 0  9997,2 55674  70.0012 322.0171 0002620 267.8254  92.2605 14.98337867 52680,6950.169,96.106,573.855,570.213,0.0
55674.0,STARLINK-5462,PAYLOAD,2024-01-23 21:49:35,14.98331429,0.000229,70.0015,320.3344,257.213,102.8774,0.00012786,1.433e-05,0.0,0 STARLINK-5462,1 55674U 23021AY  24023.90943339  .00001433  00000-0  12786-3 0  9994,2 55674  70.0015 320.3344 0002290 257.2130 102.8774 14.98331429 53083,6950.188,96.107,573.645,570.462,0.0
55674.0,STARLINK-5462,PAYLOAD,2024-01-24 02:37:59,14.98331287,0.0002503,70.0015,319.832,246.4333,113.6563,8.3958e-05,9.09e-06,0.0,0 STARLINK-5462,1 55674U 23021AY  24024.10971358  .00000909  00000-0  83958-4 0  9996,2 55674  70.0015 319.8320 0002503 246.4333 113.6563 14.98331287 52810,6950.189,96.107,573.794,570.314,0.0
55674.0,STARLINK-5462,PAYLOAD,2024-01-24 05:50:15,14.98332703,0.0002498,70.0015,319.4948,250.7837,109.3051,0.00010115,1.114e-05,0.0,0 STARLINK-5462,1 55674U 23021AY  24024.24323326  .00001114  00000-0  10115-3 0  9990,2 55674  70.0015 319.4948 0002498 250.7837 109.3051 14.98332703 53136,6950.185,96.107,573.786,570.313,0.0
55674.0,STARLINK-5462,PAYLOAD,2024-01-24 21:51:36,14.98329534,0.0002611,70.0017,317.8123,253.7482,106.339,4.3668e-05,4.28e-06,0.0,0 STARLINK-5462,1 55674U 23021AY  24024.91083593  .00000428  00000-0  43668-4 0  9990,2 55674  70.0017 317.8123 0002611 253.7482 106.3390 14.98329534 53233,6950.194,96.107,573.874,570.245,0.0
55674.0,STARLINK-5462,PAYLOAD,2024-01-25 02:40:00,14.98328942,0.0002512,70.0018,317.3075,245.5069,114.5828,2.2976e-05,1.81e-06,0.0,0 STARLINK-5462,1 55674U 23021AY  24025.11111639  .00000181  00000-0  22976-4 0  9991,2 55674  70.0018 317.3075 0002512 245.5069 114.5828 14.98328942 52963,6950.196,96.107,573.807,570.315,0.0
55674.0,STARLINK-5462,PAYLOAD,2024-01-25 05:52:16,14.98328228,0.0002569,70.0016,316.9699,255.5046,104.5828,2.6379e-05,2.22e-06,0.0,0 STARLINK-5462,1 55674U 23021AY  24025.24463755  .00000222  00000-0  26379-4 0  9991,2 55674  70.0016 316.9699 0002569 255.5046 104.5828 14.98328228 53288,6950.198,96.107,573.849,570.278,0.0
55674.0,STARLINK-5462,PAYLOAD,2024-01-25 21:53:37,14.98328108,0.000261,70.0014,315.2867,253.1758,106.9115,6.2529e-05,6.53e-06,0.0,0 STARLINK-5462,1 55674U 23021AY  24025.91223597  .00000653  00000-0  62529-4 0  9998,2 55674  70.0014 315.2867 0002610 253.1758 106.9115 14.98328108 53389,6950.199,96.107,573.878,570.25,0.0
55674.0,STARLINK-5462,PAYLOAD,2024-01-26 02:42:01,14.98329295,0.0002587,70.0013,314.7814,252.5814,107.5062,7.2634e-05,7.74e-06,0.0,0 STARLINK-5462,1 55674U 23021AY  24026.11251517  .00000774  00000-0  72634-4 0  9996,2 55674  70.0013 314.7814 0002587 252.5814 107.5062 14.98329295 53110,6950.195,96.107,573.858,570.262,0.0
55674.0,STARLINK-5462,PAYLOAD,2024-01-26 04:18:09,14.9832991,0.0002599,70.0014,314.6132,253.14,106.9474,8.6634e-05,9.41e-06,0.0,0 STARLINK-5462,1 55674U 23021AY  24026.17927517  .00000941  00000-0  86634-4 0  9993,2 55674  70.0014 314.6132 0002599 253.1400 106.9474 14.98329910 53422,6950.193,96.107,573.865,570.252,0.0
55674.0,STARLINK-5462,PAYLOAD,2024-01-27 02:44:02,14.98328534,0.0002562,70.0013,312.2561,249.5672,110.5212,8.1825e-05,8.83e-06,0.0,0 STARLINK-5462,1 55674U 23021AY  24027.11391663  .00000883  00000-0  81825-4 0  9997,2 55674  70.0013 312.2561 0002562 249.5672 110.5212 14.98328534 53265,6950.197,96.107,573.843,570.282,0.0
55674.0,STARLINK-5462,PAYLOAD,2024-01-27 04:20:10,14.9832977,0.0002557,70.0013,312.0879,249.5609,110.5276,9.5681e-05,1.049e-05,0.0,0 STARLINK-5462,1 55674U 23021AY  24027.18067597  .00001049  00000-0  95681-4 0  9990,2 55674  70.0013 312.0879 0002557 249.5609 110.5276 14.98329770 53576,6950.194,96.107,573.836,570.281,0.0
